[
  {
    "OBJECT_NAME": "STARLINK-31454",
    "OBJECT_ID": "2024-036S",
    "EPOCH": "2025-05-17T09:15:15.655104",
    "MEAN_MOTION": 15.30192709,
    "ECCENTRICITY": 0.0001253,
    "INCLINATION": 53.1615,
    "RA_OF_ASC_NODE": 14.7194,
    "ARG_OF_PERICENTER": 111.5773,
    "MEAN_ANOMALY": 248.5361,
    "EPHEMERIS_TYPE": 0,
    "CLASSIFICATION_TYPE": "U",
    "NORAD_CAT_ID": 59014,
    "ELEMENT_SET_NO": 999,
    "REV_AT_EPOCH": 6995,
    "BSTAR": 3.7057e-05,
    "MEAN_MOTION_DOT": 7.38e-06,
    "MEAN_MOTION_DDOT": 0
  },
  {
    "OBJECT_NAME": "STARLINK-31521",
    "OBJECT_ID": "2024-036T",
    "EPOCH": "2025-05-17T09:13:45.770592",
    "MEAN_MOTION": 15.3018489,
    "ECCENTRICITY": 0.0001212,
    "INCLINATION": 53.1603,
    "RA_OF_ASC_NODE": 14.7194,
    "ARG_OF_PERICENTER": 84.8221,
    "MEAN_ANOMALY": 275.2918,
    "EPHEMERIS_TYPE": 0,
    "CLASSIFICATION_TYPE": "U",
    "NORAD_CAT_ID": 59015,
    "ELEMENT_SET_NO": 999,
    "REV_AT_EPOCH": 6995,
    "BSTAR": 2.0968e-05,
    "MEAN_MOTION_DOT": 2.62e-06,
    "MEAN_MOTION_DDOT": 0
  },
  {
    "OBJECT_NAME": "STARLINK-31526",
    "OBJECT_ID": "2024-036U",
    "EPOCH": "2025-05-17T07:39:36.459936",
    "MEAN_MOTION": 15.30191745,
    "ECCENTRICITY": 0.0001084,
    "INCLINATION": 53.1609,
    "RA_OF_ASC_NODE": 349.4046,
    "ARG_OF_PERICENTER": 85.9367,
    "MEAN_ANOMALY": 274.1757,
    "EPHEMERIS_TYPE": 0,
    "CLASSIFICATION_TYPE": "U",
    "NORAD_CAT_ID": 59016,
    "ELEMENT_SET_NO": 999,
    "REV_AT_EPOCH": 7030,
    "BSTAR": 1.3037e-06,
    "MEAN_MOTION_DOT": -3.2e-06,
    "MEAN_MOTION_DDOT": 0
  },
  {
    "OBJECT_NAME": "STARLINK-31406",
    "OBJECT_ID": "2024-036V",
    "EPOCH": "2025-05-17T15:30:24.335136",
    "MEAN_MOTION": 15.39636591,
    "ECCENTRICITY": 9.73e-05,
    "INCLINATION": 53.1603,
    "RA_OF_ASC_NODE": 9.2576,
    "ARG_OF_PERICENTER": 84.5776,
    "MEAN_ANOMALY": 275.534,
    "EPHEMERIS_TYPE": 0,
    "CLASSIFICATION_TYPE": "U",
    "NORAD_CAT_ID": 59017,
    "ELEMENT_SET_NO": 999,
    "REV_AT_EPOCH": 7006,
    "BSTAR": 5.4027e-05,
    "MEAN_MOTION_DOT": 1.764e-05,
    "MEAN_MOTION_DDOT": 0
  },
  {
    "OBJECT_NAME": "STARLINK-31527",
    "OBJECT_ID": "2024-036W",
    "EPOCH": "2025-05-17T01:09:48.004992",
    "MEAN_MOTION": 15.30188889,
    "ECCENTRICITY": 0.0001326,
    "INCLINATION": 53.1622,
    "RA_OF_ASC_NODE": 16.1662,
    "ARG_OF_PERICENTER": 153.6561,
    "MEAN_ANOMALY": 206.4508,
    "EPHEMERIS_TYPE": 0,
    "CLASSIFICATION_TYPE": "U",
    "NORAD_CAT_ID": 59018,
    "ELEMENT_SET_NO": 999,
    "REV_AT_EPOCH": 6990,
    "BSTAR": 1.9818e-05,
    "MEAN_MOTION_DOT": 2.28e-06,
    "MEAN_MOTION_DDOT": 0
  },
  {
    "OBJECT_NAME": "STARLINK-31436",
    "OBJECT_ID": "2024-036X",
    "EPOCH": "2025-05-17T09:28:56.364384",
    "MEAN_MOTION": 15.30198088,
    "ECCENTRICITY": 0.0001418,
    "INCLINATION": 53.1607,
    "RA_OF_ASC_NODE": 14.7786,
    "ARG_OF_PERICENTER": 74.4122,
    "MEAN_ANOMALY": 285.7035,
    "EPHEMERIS_TYPE": 0,
    "CLASSIFICATION_TYPE": "U",
    "NORAD_CAT_ID": 59019,
    "ELEMENT_SET_NO": 999,
    "REV_AT_EPOCH": 6995,
    "BSTAR": 1.7087e-05,
    "MEAN_MOTION_DOT": 1.47e-06,
    "MEAN_MOTION_DDOT": 0
  },
  {
    "OBJECT_NAME": "STARLINK-30996",
    "OBJECT_ID": "2024-038A",
    "EPOCH": "2025-05-17T19:40:24.304800",
    "MEAN_MOTION": 15.2591972,
    "ECCENTRICITY": 0.0001247,
    "INCLINATION": 43.0018,
    "RA_OF_ASC_NODE": 256.6452,
    "ARG_OF_PERICENTER": 305.3976,
    "MEAN_ANOMALY": 54.6758,
    "EPHEMERIS_TYPE": 0,
    "CLASSIFICATION_TYPE": "U",
    "NORAD_CAT_ID": 59023,
    "ELEMENT_SET_NO": 999,
    "REV_AT_EPOCH": 6955,
    "BSTAR": 0.00011734,
    "MEAN_MOTION_DOT": 2.814e-05,
    "MEAN_MOTION_DDOT": 0
  },
  {
    "OBJECT_NAME": "STARLINK-31006",
    "OBJECT_ID": "2024-038B",
    "EPOCH": "2025-05-17T12:11:49.481376",
    "MEAN_MOTION": 15.27579582,
    "ECCENTRICITY": 9.71e-05,
    "INCLINATION": 43.0016,
    "RA_OF_ASC_NODE": 209.2814,
    "ARG_OF_PERICENTER": 283.7175,
    "MEAN_ANOMALY": 76.3568,
    "EPHEMERIS_TYPE": 0,
    "CLASSIFICATION_TYPE": "U",
    "NORAD_CAT_ID": 59024,
    "ELEMENT_SET_NO": 999,
    "REV_AT_EPOCH": 7004,
    "BSTAR": 7.3946e-05,
    "MEAN_MOTION_DOT": 1.773e-05,
    "MEAN_MOTION_DDOT": 0
  },
  {
    "OBJECT_NAME": "STARLINK-31178",
    "OBJECT_ID": "2024-038C",
    "EPOCH": "2025-05-17T18:02:52.704960",
    "MEAN_MOTION": 15.25922156,
    "ECCENTRICITY": 6.81e-05,
    "INCLINATION": 42.9984,
    "RA_OF_ASC_NODE": 256.9979,
    "ARG_OF_PERICENTER": 297.7406,
    "MEAN_ANOMALY": 62.3376,
    "EPHEMERIS_TYPE": 0,
    "CLASSIFICATION_TYPE": "U",
    "NORAD_CAT_ID": 59025,
    "ELEMENT_SET_NO": 999,
    "REV_AT_EPOCH": 6925,
    "BSTAR": 6.3691e-05,
    "MEAN_MOTION_DOT": 1.41e-05,
    "MEAN_MOTION_DDOT": 0
  },
  {
    "OBJECT_NAME": "STARLINK-31227",
    "OBJECT_ID": "2024-038D",
    "EPOCH": "2025-05-17T16:25:22.333728",
    "MEAN_MOTION": 15.25933375,
    "ECCENTRICITY": 0.0001204,
    "INCLINATION": 42.999,
    "RA_OF_ASC_NODE": 257.3533,
    "ARG_OF_PERICENTER": 272.3248,
    "MEAN_ANOMALY": 87.7465,
    "EPHEMERIS_TYPE": 0,
    "CLASSIFICATION_TYPE": "U",
    "NORAD_CAT_ID": 59026,
    "ELEMENT_SET_NO": 999,
    "REV_AT_EPOCH": 6950,
    "BSTAR": 0.0012036,
    "MEAN_MOTION_DOT": 0.00031383,
    "MEAN_MOTION_DDOT": 0
  },
  {
    "OBJECT_NAME": "STARLINK-30863",
    "OBJECT_ID": "2024-038E",
    "EPOCH": "2025-05-17T09:39:00.608832",
    "MEAN_MOTION": 15.25911778,
    "ECCENTRICITY": 0.000121,
    "INCLINATION": 43.0007,
    "RA_OF_ASC_NODE": 258.6696,
    "ARG_OF_PERICENTER": 229.8269,
    "MEAN_ANOMALY": 130.2476,
    "EPHEMERIS_TYPE": 0,
    "CLASSIFICATION_TYPE": "U",
    "NORAD_CAT_ID": 59027,
    "ELEMENT_SET_NO": 999,
    "REV_AT_EPOCH": 6935,
    "BSTAR": 2.7048e-05,
    "MEAN_MOTION_DOT": 4.5e-06,
    "MEAN_MOTION_DDOT": 0
  },
  {
    "OBJECT_NAME": "STARLINK-31206",
    "OBJECT_ID": "2024-038F",
    "EPOCH": "2025-05-17T05:06:06.583680",
    "MEAN_MOTION": 15.27574895,
    "ECCENTRICITY": 0.0001037,
    "INCLINATION": 43.0028,
    "RA_OF_ASC_NODE": 196.3605,
    "ARG_OF_PERICENTER": 269.0858,
    "MEAN_ANOMALY": 90.9875,
    "EPHEMERIS_TYPE": 0,
    "CLASSIFICATION_TYPE": "U",
    "NORAD_CAT_ID": 59028,
    "ELEMENT_SET_NO": 999,
    "REV_AT_EPOCH": 7018,
    "BSTAR": 1.6144e-05,
    "MEAN_MOTION_DOT": 1.82e-06,
    "MEAN_MOTION_DDOT": 0
  },
  {
    "OBJECT_NAME": "STARLINK-31224",
    "OBJECT_ID": "2024-038G",
    "EPOCH": "2025-05-17T19:27:21.560544",
    "MEAN_MOTION": 15.25931509,
    "ECCENTRICITY": 6.71e-05,
    "INCLINATION": 42.9997,
    "RA_OF_ASC_NODE": 256.5842,
    "ARG_OF_PERICENTER": 282.6969,
    "MEAN_ANOMALY": 77.3807,
    "EPHEMERIS_TYPE": 0,
    "CLASSIFICATION_TYPE": "U",
    "NORAD_CAT_ID": 59029,
    "ELEMENT_SET_NO": 999,
    "REV_AT_EPOCH": 6952,
    "BSTAR": 0.00022055,
    "MEAN_MOTION_DOT": 5.52e-05,
    "MEAN_MOTION_DDOT": 0
  },
  {
    "OBJECT_NAME": "STARLINK-31186",
    "OBJECT_ID": "2024-038H",
    "EPOCH": "2025-05-17T19:24:05.754816",
    "MEAN_MOTION": 15.25948803,
    "ECCENTRICITY": 0.0001662,
    "INCLINATION": 43.0034,
    "RA_OF_ASC_NODE": 256.5705,
    "ARG_OF_PERICENTER": 277.4165,
    "MEAN_ANOMALY": 82.6497,
    "EPHEMERIS_TYPE": 0,
    "CLASSIFICATION_TYPE": "U",
    "NORAD_CAT_ID": 59030,
    "ELEMENT_SET_NO": 999,
    "REV_AT_EPOCH": 6952,
    "BSTAR": 5.1207e-05,
    "MEAN_MOTION_DOT": 1.083e-05,
    "MEAN_MOTION_DDOT": 0
  }
]