STARLINK-31454          
1 59014U 24036S   25137.38559786  .00000738  00000+0  37057-4 0  9996
2 59014  53.1615  14.7194 0001253 111.5773 248.5361 15.30192709 69959
STARLINK-31521          
1 59015U 24036T   25137.38455753  .00000262  00000+0  20968-4 0  9991
2 59015  53.1603  14.7194 0001212  84.8221 275.2918 15.30184890 69959
STARLINK-31526          
1 59016U 24036U   25137.31917199 -.00000320  00000+0  13037-5 0  9998
2 59016  53.1609 349.4046 0001084  85.9367 274.1757 15.30191745 70307
STARLINK-31406          
1 59017U 24036V   25137.64611499  .00001764  00000+0  54027-4 0  9994
2 59017  53.1603   9.2576 0000973  84.5776 275.5340 15.39636591 70064
STARLINK-31527          
1 59018U 24036W   25137.04847228  .00000228  00000+0  19818-4 0  9993
2 59018  53.1622  16.1662 0001326 153.6561 206.4508 15.30188889 69905
STARLINK-31436          
1 59019U 24036X   25137.39509681  .00000147  00000+0  17087-4 0  9996
2 59019  53.1607  14.7786 0001418  74.4122 285.7035 15.30198088 69957
STARLINK-30996          
1 59023U 24038A   25137.81972575  .00002814  00000+0  11734-3 0  9991
2 59023  43.0018 256.6452 0001247 305.3976  54.6758 15.25919720 69555
STARLINK-31006          
1 59024U 24038B   25137.50821159  .00001773  00000+0  73946-4 0  9996
2 59024  43.0016 209.2814 0000971 283.7175  76.3568 15.27579582 70049
STARLINK-31178          
1 59025U 24038C   25137.75199890  .00001410  00000+0  63691-4 0  9998
2 59025  42.9984 256.9979 0000681 297.7406  62.3376 15.25922156 69253
STARLINK-31227          
1 59026U 24038D   25137.68428627  .00031383  00000+0  12036-2 0  9991
2 59026  42.9990 257.3533 0001204 272.3248  87.7465 15.25933375 69500
STARLINK-30863          
1 59027U 24038E   25137.40209038  .00000450  00000+0  27048-4 0  9997
2 59027  43.0007 258.6696 0001210 229.8269 130.2476 15.25911778 69355
STARLINK-31206          
1 59028U 24038F   25137.21257620  .00000182  00000+0  16144-4 0  9994
2 59028  43.0028 196.3605 0001037 269.0858  90.9875 15.27574895 70189
STARLINK-31224          
1 59029U 24038G   25137.81066621  .00005520  00000+0  22055-3 0  9998
2 59029  42.9997 256.5842 0000671 282.6969  77.3807 15.25931509 69529
STARLINK-31186          
1 59030U 24038H   25137.80839994  .00001083  00000+0  51207-4 0  9992
2 59030  43.0034 256.5705 0001662 277.4165  82.6497 15.25948803 69523
